FENGYUN 1C DEB          
1 31462U 99025BVA 17344.28398443  .00000133  00000-0  10029-3 0  9993
2 31462  98.9915   8.4355 0033676 193.0146 231.6470 14.10102226547719
